DMSP 5D-3 F16 (USA 172) 
1 28054U 03048A   26188.47419862  .00000002  00000+0  24500-4 0  9996
2 28054  98.9886 212.4362 0008218  90.0962  12.8797 14.14484926172359
METEOSAT-9 (MSG-2)      
1 28912U 05049B   26188.22521814  .00000133  00000+0  00000+0 0  9995
2 28912   9.4037  53.9656 0002161   0.5612 357.4517  1.00268823  7194
DMSP 5D-3 F17 (USA 191) 
1 29522U 06050A   26188.53452757  .00000032  00000+0  38986-4 0  9996
2 29522  98.7382 194.6884 0010186   4.9687 355.1586 14.14995908 15301
FENGYUN 3A              
1 32958U 08026A   26188.27607894  .00000061  00000+0  49626-4 0  9998
2 32958  98.6886 128.7338 0009859  72.3325 287.8927 14.19575424938251
GOES 14                 
1 35491U 09033A   26188.52715485 -.00000334  00000+0  00000+0 0  9998
2 35491   1.7390  82.7988 0002015  34.4150 127.8574  1.00102361  6791
DMSP 5D-3 F18 (USA 210) 
1 35951U 09057A   26188.50720843  .00000204  00000+0  12884-3 0  9999
2 35951  98.9049 169.2332 0010759 187.3451 172.7566 14.14907937862466
EWS-G2 (GOES 15)        
1 36411U 10008A   26188.51407104  .00000036  00000+0  00000+0 0  9998
2 36411   1.3302  82.5686 0005306  50.9416  40.4457  1.00268160 59844
COMS 1                  
1 36744U 10032A   26188.00140631 -.00000175  00000+0  00000+0 0  9992
2 36744   4.8529  75.1185 0011441  14.6993 190.2555  0.99169409 51284
FENGYUN 3B              
1 37214U 10059A   26188.53812398  .00000153  00000+0  10250-3 0  9995
2 37214  98.9607 234.6381 0022956 127.2925 338.8597 14.14846952810306
SUOMI NPP               
1 37849U 11061A   26188.49953054  .00000052  00000+0  45585-4 0  9991
2 37849  98.7955 129.2372 0000563 272.5426  87.5686 14.19521502761323
METEOSAT-10 (MSG-3)     
1 38552U 12035B   26188.28762247  .00000005  00000+0  00000+0 0  9990
2 38552   4.7161  60.9176 0001286  18.9815 308.9890  1.00269748 51057
METOP-B                 
1 38771U 12049A   26188.53259589  .00000066  00000+0  49929-4 0  9991
2 38771  98.6493 239.6248 0001115 302.5643  57.5427 14.21444907716158
INSAT-3D                
1 39216U 13038B   26188.52715485 -.00000325  00000+0  00000+0 0  9997
2 39216   1.9753  82.2918 0000512  58.1889 104.3133  1.00272530 47281
FENGYUN 3C              
1 39260U 13052A   26188.46841980  .00000065  00000+0  54273-4 0  9991
2 39260  98.4992 161.4131 0014038 329.4720  30.5636 14.15759549661436
METEOR-M 2              
1 40069U 14037A   26188.48827928  .00000279  00000+0  14686-3 0  9992
2 40069  98.5130 163.5086 0005655 350.7643   9.3430 14.21468113622207
HIMAWARI-8              
1 40267U 14060A   26188.50183516 -.00000260  00000+0  00000+0 0  9991
2 40267   0.0381 276.1938 0000894 204.3259 126.2760  1.00270493 42966
FENGYUN 2G              
1 40367U 14090A   26187.82802884 -.00000288  00000+0  00000+0 0  9995
2 40367   5.6854  72.5831 0003797 150.1118  99.6685  1.00264526 42194
METEOSAT-11 (MSG-4)     
1 40732U 15034A   26188.28944248  .00000075  00000+0  00000+0 0  9995
2 40732   3.2505  70.9853 0002249 350.9491 336.7954  1.00269388  7419
ELEKTRO-L 2             
1 41105U 15074A   26188.24653742 -.00000106  00000+0  00000+0 0  9992
2 41105   6.7409  70.2783 0000602 240.8898  48.2797  1.00273381 38703
SENTINEL-3A             
1 41335U 16011A   26188.48410257  .00000074  00000+0  48408-4 0  9999
2 41335  98.6240 255.5754 0001410  92.6218 267.5124 14.26738310540959
INSAT-3DR               
1 41752U 16054A   26188.51615105 -.00000062  00000+0  00000+0 0  9991
2 41752   0.0497  89.4997 0010441 181.2322 274.5622  1.00272251 36025
HIMAWARI-9              
1 41836U 16064A   26187.95906302  .00000000  00000+0  00000+0 0  9995
2 41836   0.0138  10.3948 0002207 162.3808 238.1863  1.00271383 35408
GOES 16                 
1 41866U 16071A   26188.48076744 -.00000076  00000+0  00000+0 0  9997
2 41866   0.3878  85.6375 0000492  70.1343 198.0679  1.00271508 35305
FENGYUN 4A              
1 41882U 16077A   26188.52602818 -.00000343  00000+0  00000+0 0  9990
2 41882   2.3708  80.0644 0008162 157.9323   0.6473  1.00272996 35132
CYGFM05                 
1 41884U 16078A   26188.24688169  .00018785  00000+0  24617-3 0  9997
2 41884  34.9560 127.6686 0007468 322.9181  37.1027 15.57578683531881
CYGFM04                 
1 41885U 16078B   26188.15353659  .00025085  00000+0  26974-3 0  9990
2 41885  34.9321  94.9485 0005578 358.8214   1.2498 15.62704475532123
CYGFM02                 
1 41886U 16078C   26188.11479656  .00030735  00000+0  29063-3 0  9993
2 41886  34.9397  89.1424 0006490   3.0984 356.9782 15.65904314532294
CYGFM01                 
1 41887U 16078D   26188.22665620  .00019674  00000+0  25096-3 0  9995
2 41887  34.9388 128.6947 0007414 316.9964  43.0180 15.58285664531832
CYGFM08                 
1 41888U 16078E   26188.15092975  .00023550  00000+0  26934-3 0  9995
2 41888  34.9424 108.2367 0007748 348.0053  12.0487 15.61111887532093
CYGFM07                 
1 41890U 16078G   26188.17274104  .00023080  00000+0  26304-3 0  9995
2 41890  34.9442  96.4152 0005968   0.1266 359.9460 15.61221303532123
CYGFM03                 
1 41891U 16078H   26188.14386455  .00023492  00000+0  26783-3 0  9994
2 41891  34.9394  98.5399 0006087 346.3478  13.7082 15.61208080532097
