OBJECT_NAME,OBJECT_ID,EPOCH,MEAN_MOTION,ECCENTRICITY,INCLINATION,RA_OF_ASC_NODE,ARG_OF_PERICENTER,MEAN_ANOMALY,EPHEMERIS_TYPE,CLASSIFICATION_TYPE,NORAD_CAT_ID,ELEMENT_SET_NO,REV_AT_EPOCH,BSTAR,MEAN_MOTION_DOT,MEAN_MOTION_DDOT
DMSP 5D-3 F16 (USA 172),2003-048A,2026-07-07T11:22:50.760768,14.14484926,.0008218,98.9886,212.4362,90.0962,12.8797,0,U,28054,999,17235,.245E-4,.2E-7,0
METEOSAT-9 (MSG-2),2005-049B,2026-07-07T05:24:18.847296,1.00268823,.0002161,9.4037,53.9656,0.5612,357.4517,0,U,28912,999,719,0,.133E-5,0
DMSP 5D-3 F17 (USA 191),2006-050A,2026-07-07T12:49:43.182048,14.14995908,.0010186,98.7382,194.6884,4.9687,355.1586,0,U,29522,999,1530,.38986E-4,.32E-6,0
FENGYUN 3A,2008-026A,2026-07-07T06:37:33.220416,14.19575424,.0009859,98.6886,128.7338,72.3325,287.8927,0,U,32958,999,93825,.49626E-4,.61E-6,0
GOES 14,2009-033A,2026-07-07T12:39:06.179040,1.00102361,.0002015,1.7390,82.7988,34.4150,127.8574,0,U,35491,999,679,0,-.334E-5,0
DMSP 5D-3 F18 (USA 210),2009-057A,2026-07-07T12:10:22.808352,14.14907937,.0010759,98.9049,169.2332,187.3451,172.7566,0,U,35951,999,86246,.12884E-3,.204E-5,0
EWS-G2 (GOES 15),2010-008A,2026-07-07T12:20:15.737856,1.00268160,.0005306,1.3302,82.5686,50.9416,40.4457,0,U,36411,999,5984,0,.36E-6,0
COMS 1,2010-032A,2026-07-07T00:02:01.505184,0.99169409,.0011441,4.8529,75.1185,14.6993,190.2555,0,U,36744,999,5128,0,-.175E-5,0
FENGYUN 3B,2010-059A,2026-07-07T12:54:53.911872,14.14846952,.0022956,98.9607,234.6381,127.2925,338.8597,0,U,37214,999,81030,.1025E-3,.153E-5,0
SUOMI NPP,2011-061A,2026-07-07T11:59:19.438656,14.19521502,.0000563,98.7955,129.2372,272.5426,87.5686,0,U,37849,999,76132,.45585E-4,.52E-6,0
METEOSAT-10 (MSG-3),2012-035B,2026-07-07T06:54:10.581408,1.00269748,.0001286,4.7161,60.9176,18.9815,308.9890,0,U,38552,999,5105,0,.5E-7,0
METOP-B,2012-049A,2026-07-07T12:46:56.284896,14.21444907,.0001115,98.6493,239.6248,302.5643,57.5427,0,U,38771,999,71615,.49929E-4,.66E-6,0
INSAT-3D,2013-038B,2026-07-07T12:39:06.179040,1.00272530,.0000512,1.9753,82.2918,58.1889,104.3133,0,U,39216,999,4728,0,-.325E-5,0
FENGYUN 3C,2013-052A,2026-07-07T11:14:31.470720,14.15759549,.0014038,98.4992,161.4131,329.4720,30.5636,0,U,39260,999,66143,.54273E-4,.65E-6,0
METEOR-M 2,2014-037A,2026-07-07T11:43:07.329792,14.21468113,.0005655,98.5130,163.5086,350.7643,9.3430,0,U,40069,999,62220,.14686E-3,.279E-5,0
HIMAWARI-8,2014-060A,2026-07-07T12:02:38.557824,1.00270493,.0000894,0.0381,276.1938,204.3259,126.2760,0,U,40267,999,4296,0,-.26E-5,0
FENGYUN 2G,2014-090A,2026-07-06T19:52:21.691776,1.00264526,.0003797,5.6854,72.5831,150.1118,99.6685,0,U,40367,999,4219,0,-.288E-5,0
METEOSAT-11 (MSG-4),2015-034A,2026-07-07T06:56:47.830272,1.00269388,.0002249,3.2505,70.9853,350.9491,336.7954,0,U,40732,999,741,0,.75E-6,0
ELEKTRO-L 2,2015-074A,2026-07-07T05:55:00.833088,1.00273381,.0000602,6.7409,70.2783,240.8898,48.2797,0,U,41105,999,3870,0,-.106E-5,0
SENTINEL-3A,2016-011A,2026-07-07T11:37:06.462048,14.26738310,.000141,98.6240,255.5754,92.6218,267.5124,0,U,41335,999,54095,.48408E-4,.74E-6,0
INSAT-3DR,2016-054A,2026-07-07T12:23:15.450720,1.00272251,.0010441,0.0497,89.4997,181.2322,274.5622,0,U,41752,999,3602,0,-.62E-6,0
HIMAWARI-9,2016-064A,2026-07-06T23:01:03.044928,1.00271383,.0002207,0.0138,10.3948,162.3808,238.1863,0,U,41836,999,3540,0,0,0
GOES 16,2016-071A,2026-07-07T11:32:18.306816,1.00271508,.0000492,0.3878,85.6375,70.1343,198.0679,0,U,41866,999,3530,0,-.76E-6,0
FENGYUN 4A,2016-077A,2026-07-07T12:37:28.834752,1.00272996,.0008162,2.3708,80.0644,157.9323,0.6473,0,U,41882,999,3513,0,-.343E-5,0
CYGFM05,2016-078A,2026-07-07T05:55:30.578016,15.57578683,.0007468,34.9560,127.6686,322.9181,37.1027,0,U,41884,999,53188,.24617E-3,.18785E-3,0
CYGFM04,2016-078B,2026-07-07T03:41:05.561376,15.62704475,.0005578,34.9321,94.9485,358.8214,1.2498,0,U,41885,999,53212,.26974E-3,.25085E-3,0
CYGFM02,2016-078C,2026-07-07T02:45:18.422784,15.65904314,.000649,34.9397,89.1424,3.0984,356.9782,0,U,41886,999,53229,.29063E-3,.30735E-3,0
CYGFM01,2016-078D,2026-07-07T05:26:23.095680,15.58285664,.0007414,34.9388,128.6947,316.9964,43.0180,0,U,41887,999,53183,.25096E-3,.19674E-3,0
CYGFM08,2016-078E,2026-07-07T03:37:20.330400,15.61111887,.0007748,34.9424,108.2367,348.0053,12.0487,0,U,41888,999,53209,.26934E-3,.2355E-3,0
CYGFM07,2016-078G,2026-07-07T04:08:44.825856,15.61221303,.0005968,34.9442,96.4152,0.1266,359.9460,0,U,41890,999,53212,.26304E-3,.2308E-3,0
CYGFM03,2016-078H,2026-07-07T03:27:09.897120,15.61208080,.0006087,34.9394,98.5399,346.3478,13.7082,0,U,41891,999,53209,.26783E-3,.23492E-3,0
